GLOBALSTAR M057         
1 25943U 99058A   25102.91046397 -.00000033  00000+0  54399-3 0  9992
2 25943  51.9971 173.4591 0002701 234.5422 125.5175 12.24816859158937
GLOBALSTAR M059         
1 25944U 99058B   25102.56191036 -.00000049  00000+0  46325-3 0  9992
2 25944  52.0050  24.7081 0000468 121.2075  50.1467 11.99976257566169
GLOBALSTAR M056         
1 25945U 99058C   25102.78751455 -.00000098  00000+0 -12545-3 0  9996
2 25945  51.9994  27.7349 0001519  54.8071 321.7760 12.04778465154748
GLOBALSTAR M031         
1 25946U 99058D   25102.92491111 -.00000035  00000+0  56546-3 0  9992
2 25946  51.9961 283.6029 0001959  67.7376  99.8421 12.16033323156604
GLOBALSTAR M039         
1 25961U 99062A   25102.68285280 -.00000061  00000+0  23679-3 0  9995
2 25961  51.9824 108.2284 0002636 199.2573 160.8195 12.62323008171941
GLOBALSTAR M034         
1 25962U 99062B   25102.62861345 -.00000046  00000+0  55380-3 0  9999
2 25962  51.9857 181.8026 0013859 275.3440 232.2750 11.79446547130652
GLOBALSTAR M029         
1 25963U 99062C   25102.77984828 -.00000059  00000+0  33352-3 0  9997
2 25963  51.9799 272.2143 0002233   9.0327   3.6623 11.99894695161277
GLOBALSTAR M061         
1 25964U 99062D   25102.96190910 -.00000062  00000+0  30517-3 0  9994
2 25964  51.9831   4.1046 0005577 197.3299 174.9404 11.76773031113509
